EPOCH,NORAD_CAT_ID,MEAN_MOTION,ECCENTRICITY,INCLINATION,RA_OF_ASC_NODE,ARG_OF_PERICENTER,MEAN_ANOMALY,MEAN_MOTION_DOT,BSTAR,TLE_LINE1,TLE_LINE2
2024-03-26 12:20:34.868544,50803,15.08836780,0.00017520,53.2162,130.6876,86.7336,273.3857,-0.00003717,-0.00021554000000,1 50803U 22001A   24086.51429246 -.00003717  00000-0 -21554-3 0  9994,2 50803  53.2162 130.6876 0001752  86.7336 273.3857 15.08836780124015
2024-03-27 12:11:20.623776,50803,15.08848735,0.00019380,53.2162,126.2279,90.6676,269.4538,0.00002088,0.00014919000000,1 50803U 22001A   24087.50787759  .00002088  00000-0  14919-3 0  9995,2 50803  53.2162 126.2279 0001938  90.6676 269.4538 15.08848735122899
2024-03-27 12:11:20.623776,50803,15.08848735,0.00019380,53.2162,126.2279,90.6676,269.4538,0.00002088,0.00014919000000,1 50803U 22001A   24087.50787759  .00002088  00000-0  14919-3 0  9995,2 50803  53.2162 126.2279 0001938  90.6676 269.4538 15.08848735124161
2024-03-27 20:08:16.734048,50803,15.08843104,0.00021680,53.2177,124.7387,95.9995,264.1244,0.00001062,0.00008483500000,1 50803U 22001A   24087.83908257  .00001062  00000-0  84835-4 0  9995,2 50803  53.2177 124.7387 0002168  95.9995 264.1244 15.08843104122943
2024-03-27 20:08:16.734048,50803,15.08843104,0.00021680,53.2177,124.7387,95.9995,264.1244,0.00001062,0.00008483500000,1 50803U 22001A   24087.83908257  .00001062  00000-0  84835-4 0  9995,2 50803  53.2177 124.7387 0002168  95.9995 264.1244 15.08843104124215
2024-03-28 12:02:07.958400,50803,15.08827053,0.00022160,53.2173,121.7653,98.4339,261.6905,0.00007479,0.00048765000000,1 50803U 22001A   24088.50148100  .00007479  00000-0  48765-3 0  9992,2 50803  53.2173 121.7653 0002216  98.4339 261.6905 15.08827053123049
2024-03-28 12:02:07.958400,50803,15.08827053,0.00022160,53.2173,121.7653,98.4339,261.6905,0.00007479,0.00048765000000,1 50803U 22001A   24088.50148100  .00007479  00000-0  48765-3 0  9992,2 50803  53.2173 121.7653 0002216  98.4339 261.6905 15.08827053124310
2024-03-29 11:52:52.114368,50803,15.08878197,0.00021400,53.2171,117.3073,87.6612,272.4625,0.00003227,0.00022054000000,1 50803U 22001A   24089.49504762  .00003227  00000-0  22054-3 0  9991,2 50803  53.2171 117.3073 0002140  87.6612 272.4625 15.08878197124465
2024-03-29 18:14:26.956608,50803,15.08844894,0.00024360,53.2167,116.1159,87.9286,272.1985,-0.00001569,-0.00008047200000,1 50803U 22001A   24089.76003422 -.00001569  00000-0 -80472-4 0  9996,2 50803  53.2167 116.1159 0002436  87.9286 272.1985 15.08844894123237
2024-03-29 18:14:26.956608,50803,15.08844894,0.00024360,53.2167,116.1159,87.9286,272.1985,-0.00001569,-0.00008047200000,1 50803U 22001A   24089.76003422 -.00001569  00000-0 -80472-4 0  9996,2 50803  53.2167 116.1159 0002436  87.9286 272.1985 15.08844894124508
2024-03-30 08:32:56.191488,50803,15.08826291,0.00020430,53.2180,113.4454,95.8205,264.3020,-0.00001001,-0.00004478100000,1 50803U 22001A   24090.35620592 -.00001001  00000-0 -44781-4 0  9990,2 50803  53.2180 113.4454 0002043  95.8205 264.3020 15.08826291123327
2024-03-30 08:32:56.191488,50803,15.08826291,0.00020430,53.2180,113.4454,95.8205,264.3020,-0.00001001,-0.00004478100000,1 50803U 22001A   24090.35620592 -.00001001  00000-0 -44781-4 0  9990,2 50803  53.2180 113.4454 0002043  95.8205 264.3020 15.08826291124597
2024-03-30 18:05:14.893440,50803,15.08834753,0.00022740,53.2179,111.6612,99.0080,261.1170,-0.00003586,-0.00020733000000,1 50803U 22001A   24090.75364460 -.00003586  00000-0 -20733-3 0  9993,2 50803  53.2179 111.6612 0002274  99.0080 261.1170 15.08834753123383
2024-03-30 18:05:14.893440,50803,15.08834753,0.00022740,53.2179,111.6612,99.0080,261.1170,-0.00003586,-0.00020733000000,1 50803U 22001A   24090.75364460 -.00003586  00000-0 -20733-3 0  9993,2 50803  53.2179 111.6612 0002274  99.0080 261.1170 15.08834753124654
2024-03-31 05:12:56.637216,50803,15.08845071,0.00023480,53.2173,109.5798,104.1385,255.9868,-0.00003849,-0.00022380000000,1 50803U 22001A   24091.21732219 -.00003849  00000-0 -22380-3 0  9998,2 50803  53.2173 109.5798 0002348 104.1385 255.9868 15.08845071124725
2024-03-31 08:23:42.828000,50803,15.08845636,0.00023160,53.2173,108.9849,103.1458,256.9792,-0.00003762,-0.00021835000000,1 50803U 22001A   24091.34980125 -.00003762  00000-0 -21835-3 0  9991,2 50803  53.2173 108.9849 0002316 103.1458 256.9792 15.08845636123475
2024-03-31 17:55:59.990304,50803,15.08862115,0.00023040,53.2175,107.1970,96.2954,263.8301,-0.00001145,-0.00005378900000,1 50803U 22001A   24091.74722211 -.00001145  00000-0 -53789-4 0  9992,2 50803  53.2175 107.1970 0002304  96.2954 263.8301 15.08862115124805
2024-03-31 17:55:59.990304,50803,15.08862115,0.00023040,53.2175,107.1970,96.2954,263.8301,-0.00001145,-0.00005378900000,1 50803U 22001A   24091.74722211 -.00001145  00000-0 -53789-4 0  9992,2 50803  53.2175 107.1970 0002304  96.2954 263.8301 15.08862115123534
2024-04-01 09:49:54.101280,50803,15.08813949,0.00019710,53.2166,104.2256,106.8047,253.3162,-0.00000362,-0.00000465140000,1 50803U 22001A   24092.40965395 -.00000362  00000-0 -46514-5 0  9997,2 50803  53.2166 104.2256 0001971 106.8047 253.3162 15.08813949123630
2024-04-01 09:49:54.101280,50803,15.08813949,0.00019710,53.2166,104.2256,106.8047,253.3162,-0.00000362,-0.00000465140000,1 50803U 22001A   24092.40965395 -.00000362  00000-0 -46514-5 0  9997,2 50803  53.2166 104.2256 0001971 106.8047 253.3162 15.08813949124901
2024-04-02 00:08:22.522272,50803,15.08821049,0.00018280,53.2168,101.5487,103.5831,256.5365,-0.00000066,0.00001394600000,1 50803U 22001A   24093.00581623 -.00000066  00000-0  13946-4 0  9994,2 50803  53.2168 101.5487 0001828 103.5831 256.5365 15.08821049124994
2024-04-02 08:05:17.924064,50803,15.08830558,0.00018940,53.2166,100.0615,101.2663,258.8542,0.00000377,0.00004180200000,1 50803U 22001A   24093.33701301  .00000377  00000-0  41802-4 0  9993,2 50803  53.2166 100.0615 0001894 101.2663 258.8542 15.08830558123772
2024-04-02 08:05:17.924064,50803,15.08830558,0.00018940,53.2166,100.0615,101.2663,258.8542,0.00000377,0.00004180200000,1 50803U 22001A   24093.33701301  .00000377  00000-0  41802-4 0  9993,2 50803  53.2166 100.0615 0001894 101.2663 258.8542 15.08830558125044
2024-04-02 17:37:36.316704,50803,15.08842867,0.00019910,53.2176,98.2761,99.5545,260.5672,-0.00000880,-0.00003718000000,1 50803U 22001A   24093.73444811 -.00000880  00000-0 -37180-4 0  9992,2 50803  53.2176  98.2761 0001991  99.5545 260.5672 15.08842867123836
2024-04-02 17:37:36.316704,50803,15.08842867,0.00019910,53.2176,98.2761,99.5545,260.5672,-0.00000880,-0.00003718000000,1 50803U 22001A   24093.73444811 -.00000880  00000-0 -37180-4 0  9992,2 50803  53.2176  98.2761 0001991  99.5545 260.5672 15.08842867125108
2024-04-02 23:59:07.356480,50803,15.08899014,0.00014390,53.2168,97.0859,89.5691,270.5467,-0.00013301,-0.00081782000000,1 50803U 22001A   24093.99939070 -.00013301  00000-0 -81782-3 0  9994,2 50803  53.2168  97.0859 0001439  89.5691 270.5467 15.08899014125145
2024-04-03 06:20:39.048576,50803,15.08898752,0.00017570,53.2162,95.8964,88.4267,271.6926,-0.00012560,-0.00077117000000,1 50803U 22001A   24094.26434084 -.00012560  00000-0 -77117-3 0  9993,2 50803  53.2162  95.8964 0001757  88.4267 271.6926 15.08898752123915
2024-04-03 17:28:23.360160,50803,15.08834776,0.00016830,53.2167,93.8164,98.1170,262.0013,0.00003176,0.00021757000000,1 50803U 22001A   24094.72804815  .00003176  00000-0  21757-3 0  9997,2 50803  53.2167  93.8164 0001683  98.1170 262.0013 15.08834776125255
2024-04-03 17:28:23.360160,50803,15.08834776,0.00016830,53.2167,93.8164,98.1170,262.0013,0.00003176,0.00021757000000,1 50803U 22001A   24094.72804815  .00003176  00000-0  21757-3 0  9997,2 50803  53.2167  93.8164 0001683  98.1170 262.0013 15.08834776123983
2024-04-04 09:22:14.653632,50803,15.08843151,0.00017480,53.2164,90.8427,97.2433,262.8757,0.00002076,0.00014848000000,1 50803U 22001A   24095.39044738  .00002076  00000-0  14848-3 0  9992,2 50803  53.2164  90.8427 0001748  97.2433 262.8757 15.08843151124085
2024-04-04 17:19:10.528896,50803,15.08840824,0.00017240,53.2159,89.3557,96.7293,263.3895,0.00001133,0.00008925500000,1 50803U 22001A   24095.72164964  .00001133  00000-0  89255-4 0  9991,2 50803  53.2159  89.3557 0001724  96.7293 263.3895 15.08840824124137
2024-04-05 06:02:15.507168,50803,15.08842981,0.00017410,53.2157,86.9775,94.5200,265.5991,0.00000475,0.00004793000000,1 50803U 22001A   24096.25156837  .00000475  00000-0  47930-4 0  9992,2 50803  53.2157  86.9775 0001741  94.5200 265.5991 15.08842981125489
2024-04-05 09:13:01.672896,50803,15.08844164,0.00017390,53.2155,86.3827,93.7240,266.3951,0.00000460,0.00004701800000,1 50803U 22001A   24096.38404714  .00000460  00000-0  47018-4 0  9997,2 50803  53.2155  86.3827 0001739  93.7240 266.3951 15.08844164124233
2024-04-06 05:53:02.355360,50803,15.08842990,0.00017410,53.2165,82.5165,94.1513,265.9678,0.00000472,0.00004776300000,1 50803U 22001A   24097.24516615  .00000472  00000-0  47763-4 0  9997,2 50803  53.2165  82.5165 0001741  94.1513 265.9678 15.08842990124368
2024-04-06 15:25:21.309600,50803,15.08840812,0.00017210,53.2165,80.7324,93.5764,266.5425,0.00000148,0.00002738900000,1 50803U 22001A   24097.64260775  .00000148  00000-0  27389-4 0  9996,2 50803  53.2165  80.7324 0001721  93.5764 266.5425 15.08840812125699
2024-04-06 23:22:17.441472,50803,15.08834721,0.00018120,53.2179,79.2460,94.3008,265.8191,-0.00000157,0.00000823000000,1 50803U 22001A   24097.97381298 -.00000157  00000-0  82300-5 0  9992,2 50803  53.2179  79.2460 0001812  94.3008 265.8191 15.08834721124478
2024-04-07 05:43:49.970784,50803,15.08836482,0.00018270,53.2182,78.0570,94.7392,265.3809,-0.00000175,0.00000707980000,1 50803U 22001A   24098.23877281 -.00000175  00000-0  70798-5 0  9992,2 50803  53.2182  78.0570 0001827  94.7392 265.3809 15.08836482124519
2024-04-07 15:16:08.855904,50803,15.08838271,0.00018150,53.2188,76.2735,93.8134,266.3066,-0.00000785,-0.00003123300000,1 50803U 22001A   24098.63621361 -.00000785  00000-0 -31233-4 0  9990,2 50803  53.2188  76.2735 0001815  93.8134 266.3066 15.08838271124579
